start=new Date('2021-10-10T00:00:00.000Z').valueOf();
sats=[{"LAUNCH_DATE":"2021-01-20","DECAY_DATE":null,"OBJECT_NAME":"STARLINK-2050","ECCENTRICITY":"0.00018050","REV_AT_EPOCH":"4008","PERIAPSIS":"545.959","FILE":"3153808","MEAN_MOTION_DOT":"0.00002126","TLE_LINE2":"2 47357  53.0565  97.9269 0001805  93.8170 266.3025 15.06401479 40089","NORAD_CAT_ID":"47357","REF_FRAME":"TEME","CLASSIFICATION_TYPE":"U","MEAN_MOTION_DDOT":"0.0000000000000","CENTER_NAME":"EARTH","MEAN_ANOMALY":"266.3025","ARG_OF_PERICENTER":"93.8170","RA_OF_ASC_NODE":"97.9269","EPHEMERIS_TYPE":"0","OBJECT_TYPE":"PAYLOAD","ELEMENT_SET_NO":"999","PERIOD":"95.592","MEAN_MOTION":"15.06401479","TIME_SYSTEM":"UTC","EPOCH":"2021-10-09T17:54:56.145888","SITE":"AFETR","RCS_SIZE":"LARGE","INCLINATION":"53.0565","OBJECT_ID":"2021-005J","GP_ID":"186729050","APOAPSIS":"548.459","MEAN_ELEMENT_THEORY":"SGP4","COUNTRY_CODE":"US","SEMIMAJOR_AXIS":"6925.344","BSTAR":"0.00016159000000","TLE_LINE1":"1 47357U 21005J   21282.74648317  .00002126  00000-0  16159-3 0  9995"},{"MEAN_MOTION_DDOT":"0.0000000000000","CENTER_NAME":"EARTH","MEAN_ANOMALY":"261.1344","ARG_OF_PERICENTER":"98.9809","MEAN_MOTION_DOT":"-0.00000224","REF_FRAME":"TEME","NORAD_CAT_ID":"47358","TLE_LINE2":"2 47358  53.0558  67.8949 0001452  98.9809 261.1344 15.06401383 40504","CLASSIFICATION_TYPE":"U","REV_AT_EPOCH":"4050","PERIAPSIS":"546.204","FILE":"3153808","LAUNCH_DATE":"2021-01-20","DECAY_DATE":null,"OBJECT_NAME":"STARLINK-2055","ECCENTRICITY":"0.00014520","COUNTRY_CODE":"US","MEAN_ELEMENT_THEORY":"SGP4","BSTAR":"0.00000387450000","TLE_LINE1":"1 47358U 21005K   21282.74924030 -.00000224  00000-0  38745-5 0  9990","SEMIMAJOR_AXIS":"6925.344","RCS_SIZE":"LARGE","INCLINATION":"53.0558","OBJECT_ID":"2021-005K","SITE":"AFETR","GP_ID":"186728302","APOAPSIS":"548.215","PERIOD":"95.592","MEAN_MOTION":"15.06401383","TIME_SYSTEM":"UTC","EPOCH":"2021-10-09T17:58:54.361920","RA_OF_ASC_NODE":"67.8949","EPHEMERIS_TYPE":"0","OBJECT_TYPE":"PAYLOAD","ELEMENT_SET_NO":"999"},{"MEAN_MOTION":"15.06395957","PERIOD":"95.592","EPOCH":"2021-10-09T18:14:10.436064","TIME_SYSTEM":"UTC","RA_OF_ASC_NODE":"92.8568","ELEMENT_SET_NO":"999","OBJECT_TYPE":"PAYLOAD","EPHEMERIS_TYPE":"0","MEAN_ELEMENT_THEORY":"SGP4","COUNTRY_CODE":"US","SEMIMAJOR_AXIS":"6925.361","BSTAR":"-0.00002571500000","TLE_LINE1":"1 47359U 21005L   21282.75984301 -.00000665  00000-0 -25715-4 0  9991","GP_ID":"186728547","SITE":"AFETR","OBJECT_ID":"2021-005L","RCS_SIZE":"LARGE","INCLINATION":"53.0558","APOAPSIS":"548.479","PERIAPSIS":"545.972","REV_AT_EPOCH":"4015","FILE":"3153808","LAUNCH_DATE":"2021-01-20","OBJECT_NAME":"STARLINK-2069","ECCENTRICITY":"0.00018100","DECAY_DATE":null,"CENTER_NAME":"EARTH","MEAN_ANOMALY":"266.3188","MEAN_MOTION_DDOT":"0.0000000000000","ARG_OF_PERICENTER":"93.8008","NORAD_CAT_ID":"47359","TLE_LINE2":"2 47359  53.0558  92.8568 0001810  93.8008 266.3188 15.06395957 40156","REF_FRAME":"TEME","MEAN_MOTION_DOT":"-0.00000665","CLASSIFICATION_TYPE":"U"},{"BSTAR":"0.00004793000000","TLE_LINE1":"1 47360U 21005M   21282.69994976  .00000432  00000-0  47930-4 0  9998","SEMIMAJOR_AXIS":"6925.361","COUNTRY_CODE":"US","MEAN_ELEMENT_THEORY":"SGP4","APOAPSIS":"548.582","GP_ID":"186728803","OBJECT_ID":"2021-005M","RCS_SIZE":"LARGE","INCLINATION":"53.0574","SITE":"AFETR","EPOCH":"2021-10-09T16:47:55.659264","TIME_SYSTEM":"UTC","MEAN_MOTION":"15.06396096","PERIOD":"95.592","ELEMENT_SET_NO":"999","EPHEMERIS_TYPE":"0","OBJECT_TYPE":"PAYLOAD","RA_OF_ASC_NODE":"63.1245","ARG_OF_PERICENTER":"90.1343","MEAN_ANOMALY":"269.9871","CENTER_NAME":"EARTH","MEAN_MOTION_DDOT":"0.0000000000000","CLASSIFICATION_TYPE":"U","REF_FRAME":"TEME","TLE_LINE2":"2 47360  53.0574  63.1245 0001959  90.1343 269.9871 15.06396096 40574","NORAD_CAT_ID":"47360","MEAN_MOTION_DOT":"0.00000432","FILE":"3153808","PERIAPSIS":"545.869","REV_AT_EPOCH":"4057","ECCENTRICITY":"0.00019590","OBJECT_NAME":"STARLINK-2070","DECAY_DATE":null,"LAUNCH_DATE":"2021-01-20"},{"ARG_OF_PERICENTER":"86.5454","MEAN_ANOMALY":"273.5768","CENTER_NAME":"EARTH","MEAN_MOTION_DDOT":"0.0000000000000","CLASSIFICATION_TYPE":"U","NORAD_CAT_ID":"47361","TLE_LINE2":"2 47361  53.0538  68.1542 0002038  86.5454 273.5768 15.06401244 40490","REF_FRAME":"TEME","MEAN_MOTION_DOT":"0.00000645","FILE":"3153808","PERIAPSIS":"545.798","REV_AT_EPOCH":"4049","ECCENTRICITY":"0.00020380","OBJECT_NAME":"STARLINK-2071","DECAY_DATE":null,"LAUNCH_DATE":"2021-01-20","SEMIMAJOR_AXIS":"6925.345","BSTAR":"0.00006218300000","TLE_LINE1":"1 47361U 21005N   21282.69027288  .00000645  00000-0  62183-4 0  9995","MEAN_ELEMENT_THEORY":"SGP4","COUNTRY_CODE":"US","APOAPSIS":"548.621","GP_ID":"186729550","SITE":"AFETR","OBJECT_ID":"2021-005N","RCS_SIZE":"LARGE","INCLINATION":"53.0538","EPOCH":"2021-10-09T16:33:59.576832","TIME_SYSTEM":"UTC","PERIOD":"95.592","MEAN_MOTION":"15.06401244","ELEMENT_SET_NO":"999","EPHEMERIS_TYPE":"0","OBJECT_TYPE":"PAYLOAD","RA_OF_ASC_NODE":"68.1542"},{"CENTER_NAME":"EARTH","MEAN_ANOMALY":"268.7771","MEAN_MOTION_DDOT":"0.0000000000000","ARG_OF_PERICENTER":"91.3426","REF_FRAME":"TEME","TLE_LINE2":"2 47362  53.0537  97.9704 0001813  91.3426 268.7771 15.06398119 40084","NORAD_CAT_ID":"47362","MEAN_MOTION_DOT":"0.00000972","CLASSIFICATION_TYPE":"U","PERIAPSIS":"545.964","REV_AT_EPOCH":"4008","FILE":"3153808","LAUNCH_DATE":"2021-01-20","OBJECT_NAME":"STARLINK-2076","ECCENTRICITY":"0.00018130","DECAY_DATE":null,"COUNTRY_CODE":"US","MEAN_ELEMENT_THEORY":"SGP4","TLE_LINE1":"1 47362U 21005P   21282.73541935  .00000972  00000-0  84142-4 0  9993","BSTAR":"0.00008414200000","SEMIMAJOR_AXIS":"6925.354","GP_ID":"186727803","RCS_SIZE":"LARGE","OBJECT_ID":"2021-005P","INCLINATION":"53.0537","SITE":"AFETR","APOAPSIS":"548.475","PERIOD":"95.592","MEAN_MOTION":"15.06398119","EPOCH":"2021-10-09T17:39:00.231840","TIME_SYSTEM":"UTC","RA_OF_ASC_NODE":"97.9704","ELEMENT_SET_NO":"999","OBJECT_TYPE":"PAYLOAD","EPHEMERIS_TYPE":"0"},{"MEAN_ELEMENT_THEORY":"SGP4","COUNTRY_CODE":"US","SEMIMAJOR_AXIS":"6925.352","BSTAR":"0.00000778630000","TLE_LINE1":"1 47363U 21005Q   21282.73910692 -.00000165  00000-0  77863-5 0  9992","GP_ID":"186728048","SITE":"AFETR","RCS_SIZE":"LARGE","INCLINATION":"53.0532","OBJECT_ID":"2021-005Q","APOAPSIS":"548.161","MEAN_MOTION":"15.06398719","PERIOD":"95.592","EPOCH":"2021-10-09T17:44:18.837888","TIME_SYSTEM":"UTC","RA_OF_ASC_NODE":"97.9489","ELEMENT_SET_NO":"999","EPHEMERIS_TYPE":"0","OBJECT_TYPE":"PAYLOAD","MEAN_ANOMALY":"272.2201","CENTER_NAME":"EARTH","MEAN_MOTION_DDOT":"0.0000000000000","ARG_OF_PERICENTER":"87.8944","NORAD_CAT_ID":"47363","TLE_LINE2":"2 47363  53.0532  97.9489 0001363  87.8944 272.2201 15.06398719 40089","REF_FRAME":"TEME","MEAN_MOTION_DOT":"-0.00000165","CLASSIFICATION_TYPE":"U","PERIAPSIS":"546.274","REV_AT_EPOCH":"4008","FILE":"3153808","LAUNCH_DATE":"2021-01-20","OBJECT_NAME":"STARLINK-2077","ECCENTRICITY":"0.00013630","DECAY_DATE":null},{"APOAPSIS":"548.470","GP_ID":"186729303","SITE":"AFETR","RCS_SIZE":"LARGE","OBJECT_ID":"2021-005R","INCLINATION":"53.0534","SEMIMAJOR_AXIS":"6925.337","TLE_LINE1":"1 47364U 21005R   21282.77229758  .00003133  00000-0  22911-3 0  9992","BSTAR":"0.00022911000000","MEAN_ELEMENT_THEORY":"SGP4","COUNTRY_CODE":"US","ELEMENT_SET_NO":"999","OBJECT_TYPE":"PAYLOAD","EPHEMERIS_TYPE":"0","RA_OF_ASC_NODE":"97.7827","EPOCH":"2021-10-09T18:32:06.510912","TIME_SYSTEM":"UTC","PERIOD":"95.592","MEAN_MOTION":"15.06403904","CLASSIFICATION_TYPE":"U","NORAD_CAT_ID":"47364","TLE_LINE2":"2 47364  53.0534  97.7827 0001831  90.6897 269.4302 15.06403904 40088","REF_FRAME":"TEME","MEAN_MOTION_DOT":"0.00003133","ARG_OF_PERICENTER":"90.6897","MEAN_ANOMALY":"269.4302","CENTER_NAME":"EARTH","MEAN_MOTION_DDOT":"0.0000000000000","OBJECT_NAME":"STARLINK-2079","ECCENTRICITY":"0.00018310","DECAY_DATE":null,"LAUNCH_DATE":"2021-01-20","FILE":"3153808","PERIAPSIS":"545.934","REV_AT_EPOCH":"4008"},{"TIME_SYSTEM":"UTC","EPOCH":"2021-10-09T15:49:11.702208","PERIOD":"91.532","MEAN_MOTION":"15.73215281","OBJECT_TYPE":"PAYLOAD","EPHEMERIS_TYPE":"0","ELEMENT_SET_NO":"999","RA_OF_ASC_NODE":"1.1201","BSTAR":"0.00005757300000","TLE_LINE1":"1 47365U 21005S   21282.65916322  .00007472  00000-0  57573-4 0  9993","SEMIMAJOR_AXIS":"6727.852","COUNTRY_CODE":"US","MEAN_ELEMENT_THEORY":"SGP4","APOAPSIS":"352.521","RCS_SIZE":"LARGE","OBJECT_ID":"2021-005S","INCLINATION":"53.0508","SITE":"AFETR","GP_ID":"186729051","FILE":"3153808","REV_AT_EPOCH":"4143","PERIAPSIS":"346.912","DECAY_DATE":null,"ECCENTRICITY":"0.00041680","OBJECT_NAME":"STARLINK-2080","LAUNCH_DATE":"2021-01-20","ARG_OF_PERICENTER":"359.2642","MEAN_MOTION_DDOT":"0.0000000000000","MEAN_ANOMALY":"0.8369","CENTER_NAME":"EARTH","CLASSIFICATION_TYPE":"U","MEAN_MOTION_DOT":"0.00007472","REF_FRAME":"TEME","TLE_LINE2":"2 47365  53.0508   1.1201 0004168 359.2642   0.8369 15.73215281 41436","NORAD_CAT_ID":"47365"},{"REV_AT_EPOCH":"4008","PERIAPSIS":"545.970","FILE":"3153808","LAUNCH_DATE":"2021-01-20","DECAY_DATE":null,"OBJECT_NAME":"STARLINK-2081","ECCENTRICITY":"0.00018280","MEAN_MOTION_DDOT":"0.0000000000000","MEAN_ANOMALY":"270.9455","CENTER_NAME":"EARTH","ARG_OF_PERICENTER":"89.1743","MEAN_MOTION_DOT":"-0.00000585","NORAD_CAT_ID":"47366","TLE_LINE2":"2 47366  53.0556  97.8238 0001828  89.1743 270.9455 15.06392567 40088","REF_FRAME":"TEME","CLASSIFICATION_TYPE":"U","PERIOD":"95.593","MEAN_MOTION":"15.06392567","TIME_SYSTEM":"UTC","EPOCH":"2021-10-09T18:21:28.486656","RA_OF_ASC_NODE":"97.8238","EPHEMERIS_TYPE":"0","OBJECT_TYPE":"PAYLOAD","ELEMENT_SET_NO":"999","MEAN_ELEMENT_THEORY":"SGP4","COUNTRY_CODE":"US","SEMIMAJOR_AXIS":"6925.371","TLE_LINE1":"1 47366U 21005T   21282.76491304 -.00000585  00000-0 -20341-4 0  9997","BSTAR":"-0.00002034100000","SITE":"AFETR","RCS_SIZE":"LARGE","OBJECT_ID":"2021-005T","INCLINATION":"53.0556","GP_ID":"186728303","APOAPSIS":"548.502"}];
